QIANFAN-97              
1 66039U 25233G   25365.58805159  .00000055  00000+0  59749-4 0  9998
2 66039  88.9940  60.1853 0014895 357.9608   2.1484 13.57809566 10552
QIANFAN-98              
1 66040U 25233H   25365.60186577  .00000266  00000+0  23346-3 0  9996
2 66040  88.9935  60.0579 0013979 349.5940  10.4938 13.82582431 10621
QIANFAN-99              
1 66041U 25233J   25365.61337016  .00000045  00000+0  45425-4 0  9992
2 66041  88.9943  60.1879 0014347 350.2356   9.8518 13.57808740 10559
QIANFAN-100             
1 66042U 25233K   25364.44280791  .00000022  00000+0  11020-4 0  9999
2 66042  88.9954  60.2205 0014684 357.5067   2.6017 13.66940209 10449
QIANFAN-101             
1 66043U 25233L   25365.60335448  .00000397  00000+0  15803-3 0  9996
2 66043  88.9943  59.8559 0013728 341.9355  18.1349 14.26687437 10739
QIANFAN-102             
1 66044U 25233M   25365.62744466  .00000204  00000+0  23028-3 0  9998
2 66044  88.9941  60.1538 0014154 351.4694   8.6224 13.66801548 10578
QIANFAN-103             
1 66045U 25233N   25365.61364349  .00000025  00000+0  18353-4 0  9993
2 66045  88.9943  60.1881 0013945 352.9976   7.0982 13.57795878 10558
QIANFAN-104             
1 66046U 25233P   25365.61657520  .00000219  00000+0  22867-3 0  9999
2 66046  88.9945  60.1538 0013603 355.2837   4.8195 13.71546711 10572
